start=new Date('2023-01-15T00:00:00.000Z').valueOf();
sats=[{"INCLINATION":"53.0526","SITE":"AFETR","SEMIMAJOR_AXIS":"6925.326","RCS_SIZE":"LARGE","TIME_SYSTEM":"UTC","EPHEMERIS_TYPE":"0","ECCENTRICITY":"0.00023380","MEAN_MOTION_DDOT":"0.0000000000000","CLASSIFICATION_TYPE":"U","TLE_LINE1":"1 48008U 21024AH  23014.95680361  .00010814  00000-0  74363-3 0  9997","MEAN_ANOMALY":"270.6950","TLE_LINE2":"2 48008  53.0526   2.9803 0002338  89.4307 270.6950 15.06407451102074","PERIOD":"95.592","DECAY_DATE":null,"MEAN_MOTION":"15.06407451","PERIAPSIS":"545.572","REV_AT_EPOCH":"10207","MEAN_ELEMENT_THEORY":"SGP4","LAUNCH_DATE":"2021-03-24","NORAD_CAT_ID":"48008","OBJECT_ID":"2021-024AH","FILE":"3745136","ELEMENT_SET_NO":"999","EPOCH":"2023-01-14T22:57:47.831904","BSTAR":"0.00074363000000","RA_OF_ASC_NODE":"2.9803","REF_FRAME":"TEME","ARG_OF_PERICENTER":"89.4307","APOAPSIS":"548.810","OBJECT_NAME":"STARLINK-2271","MEAN_MOTION_DOT":"0.00010814","CENTER_NAME":"EARTH","OBJECT_TYPE":"PAYLOAD","COUNTRY_CODE":"US","GP_ID":"223025401"},{"EPOCH":"2023-01-14T21:11:00.476160","ELEMENT_SET_NO":"999","OBJECT_ID":"2021-024AJ","FILE":"3745133","APOAPSIS":"548.473","REF_FRAME":"TEME","ARG_OF_PERICENTER":"50.1785","BSTAR":"0.00090903000000","RA_OF_ASC_NODE":"78.3150","MEAN_MOTION_DOT":"0.00013283","OBJECT_NAME":"STARLINK-2153","GP_ID":"223025405","OBJECT_TYPE":"PAYLOAD","COUNTRY_CODE":"US","CENTER_NAME":"EARTH","RCS_SIZE":"LARGE","SEMIMAJOR_AXIS":"6925.360","SITE":"AFETR","INCLINATION":"53.0529","CLASSIFICATION_TYPE":"U","TLE_LINE1":"1 48009U 21024AJ  23014.88264440  .00013283  00000-0  90903-3 0  9997","MEAN_MOTION_DDOT":"0.0000000000000","ECCENTRICITY":"0.00018010","TIME_SYSTEM":"UTC","EPHEMERIS_TYPE":"0","PERIOD":"95.592","TLE_LINE2":"2 48009  53.0529  78.3150 0001801  50.1785 309.9363 15.06396116101011","MEAN_ANOMALY":"309.9363","PERIAPSIS":"545.978","REV_AT_EPOCH":"10101","LAUNCH_DATE":"2021-03-24","MEAN_ELEMENT_THEORY":"SGP4","NORAD_CAT_ID":"48009","MEAN_MOTION":"15.06396116","DECAY_DATE":null},{"INCLINATION":"53.0538","SITE":"AFETR","SEMIMAJOR_AXIS":"6925.312","RCS_SIZE":"LARGE","EPHEMERIS_TYPE":"0","TIME_SYSTEM":"UTC","MEAN_MOTION_DDOT":"0.0000000000000","ECCENTRICITY":"0.00016380","CLASSIFICATION_TYPE":"U","TLE_LINE1":"1 48010U 21024AK  23014.63014871  .00009373  00000-0  64712-3 0  9997","TLE_LINE2":"2 48010  53.0538  99.4444 0001638  69.0896 291.0268 15.06411924100685","MEAN_ANOMALY":"291.0268","PERIOD":"95.591","DECAY_DATE":null,"MEAN_MOTION":"15.06411924","MEAN_ELEMENT_THEORY":"SGP4","LAUNCH_DATE":"2021-03-24","NORAD_CAT_ID":"48010","PERIAPSIS":"546.043","REV_AT_EPOCH":"10068","FILE":"3745133","OBJECT_ID":"2021-024AK","EPOCH":"2023-01-14T15:07:24.848544","ELEMENT_SET_NO":"999","RA_OF_ASC_NODE":"99.4444","BSTAR":"0.00064712000000","ARG_OF_PERICENTER":"69.0896","REF_FRAME":"TEME","APOAPSIS":"548.311","OBJECT_NAME":"STARLINK-2226","MEAN_MOTION_DOT":"0.00009373","CENTER_NAME":"EARTH","OBJECT_TYPE":"PAYLOAD","COUNTRY_CODE":"US","GP_ID":"223025416"},{"TLE_LINE1":"1 48011U 21024AL  23014.45412596  .00004405  00000-0  31444-3 0  9991","CLASSIFICATION_TYPE":"U","MEAN_MOTION_DDOT":"0.0000000000000","ECCENTRICITY":"0.00020910","TIME_SYSTEM":"UTC","EPHEMERIS_TYPE":"0","RCS_SIZE":"LARGE","SEMIMAJOR_AXIS":"6925.343","SITE":"AFETR","INCLINATION":"53.0532","PERIAPSIS":"545.760","REV_AT_EPOCH":"10095","NORAD_CAT_ID":"48011","LAUNCH_DATE":"2021-03-24","MEAN_ELEMENT_THEORY":"SGP4","MEAN_MOTION":"15.06401903","DECAY_DATE":null,"PERIOD":"95.592","TLE_LINE2":"2 48011  53.0532  80.2329 0002091  55.1549 304.9636 15.06401903100954","MEAN_ANOMALY":"304.9636","APOAPSIS":"548.656","REF_FRAME":"TEME","ARG_OF_PERICENTER":"55.1549","BSTAR":"0.00031444000000","RA_OF_ASC_NODE":"80.2329","EPOCH":"2023-01-14T10:53:56.482944","ELEMENT_SET_NO":"999","OBJECT_ID":"2021-024AL","FILE":"3744726","GP_ID":"222998383","COUNTRY_CODE":"US","OBJECT_TYPE":"PAYLOAD","CENTER_NAME":"EARTH","MEAN_MOTION_DOT":"0.00004405","OBJECT_NAME":"STARLINK-2272"},{"RCS_SIZE":"LARGE","SEMIMAJOR_AXIS":"6767.076","SITE":"AFETR","INCLINATION":"53.0491","TLE_LINE1":"1 48012U 21024AM  23014.20616414  .00113055  00000-0  13830-2 0  9990","CLASSIFICATION_TYPE":"U","MEAN_MOTION_DDOT":"0.0000000000000","ECCENTRICITY":"0.00049980","EPHEMERIS_TYPE":"0","TIME_SYSTEM":"UTC","PERIOD":"92.334","MEAN_ANOMALY":"285.6296","TLE_LINE2":"2 48012  53.0491 321.7940 0004998  74.5268 285.6296 15.59556626102592","MEAN_ELEMENT_THEORY":"SGP4","LAUNCH_DATE":"2021-03-24","NORAD_CAT_ID":"48012","REV_AT_EPOCH":"10259","PERIAPSIS":"385.559","MEAN_MOTION":"15.59556626","DECAY_DATE":null,"EPOCH":"2023-01-14T04:56:52.581696","ELEMENT_SET_NO":"999","FILE":"3744203","OBJECT_ID":"2021-024AM","APOAPSIS":"392.324","ARG_OF_PERICENTER":"74.5268","REF_FRAME":"TEME","RA_OF_ASC_NODE":"321.7940","BSTAR":"0.00138300000000","MEAN_MOTION_DOT":"0.00113055","OBJECT_NAME":"STARLINK-2216","GP_ID":"222987674","COUNTRY_CODE":"US","OBJECT_TYPE":"PAYLOAD","CENTER_NAME":"EARTH"},{"RA_OF_ASC_NODE":"65.4285","BSTAR":"0.00018450000000","ARG_OF_PERICENTER":"61.2032","REF_FRAME":"TEME","APOAPSIS":"548.490","FILE":"3744726","OBJECT_ID":"2021-024AN","ELEMENT_SET_NO":"999","EPOCH":"2023-01-14T09:50:56.628960","CENTER_NAME":"EARTH","OBJECT_TYPE":"PAYLOAD","COUNTRY_CODE":"US","GP_ID":"222998568","OBJECT_NAME":"STARLINK-2243","MEAN_MOTION_DOT":"0.00002467","EPHEMERIS_TYPE":"0","TIME_SYSTEM":"UTC","MEAN_MOTION_DDOT":"0.0000000000000","ECCENTRICITY":"0.00018330","TLE_LINE1":"1 48013U 21024AN  23014.41037765  .00002467  00000-0  18450-3 0  9998","CLASSIFICATION_TYPE":"U","INCLINATION":"53.0539","SITE":"AFETR","SEMIMAJOR_AXIS":"6925.356","RCS_SIZE":"LARGE","MEAN_MOTION":"15.06397589","DECAY_DATE":null,"NORAD_CAT_ID":"48013","LAUNCH_DATE":"2021-03-24","MEAN_ELEMENT_THEORY":"SGP4","REV_AT_EPOCH":"10115","PERIAPSIS":"545.952","MEAN_ANOMALY":"298.9141","TLE_LINE2":"2 48013  53.0539  65.4285 0001833  61.2032 298.9141 15.06397589101157","PERIOD":"95.592"},{"LAUNCH_DATE":"2021-03-24","MEAN_ELEMENT_THEORY":"SGP4","NORAD_CAT_ID":"48014","PERIAPSIS":"545.590","REV_AT_EPOCH":"10168","DECAY_DATE":null,"MEAN_MOTION":"15.06406558","MEAN_ANOMALY":"308.3112","TLE_LINE2":"2 48014  53.0518  29.0383 0002316  51.8085 308.3112 15.06406558101689","PERIOD":"95.592","MEAN_MOTION_DDOT":"0.0000000000000","ECCENTRICITY":"0.00023160","EPHEMERIS_TYPE":"0","TIME_SYSTEM":"UTC","TLE_LINE1":"1 48014U 21024AP  23014.75826489  .00007621  00000-0  52986-3 0  9994","CLASSIFICATION_TYPE":"U","SITE":"AFETR","INCLINATION":"53.0518","RCS_SIZE":"LARGE","SEMIMAJOR_AXIS":"6925.328","CENTER_NAME":"EARTH","GP_ID":"223025161","COUNTRY_CODE":"US","OBJECT_TYPE":"PAYLOAD","MEAN_MOTION_DOT":"0.00007621","OBJECT_NAME":"STARLINK-2283","RA_OF_ASC_NODE":"29.0383","BSTAR":"0.00052986000000","APOAPSIS":"548.797","ARG_OF_PERICENTER":"51.8085","REF_FRAME":"TEME","FILE":"3745133","OBJECT_ID":"2021-024AP","EPOCH":"2023-01-14T18:11:54.086496","ELEMENT_SET_NO":"999"},{"GP_ID":"222998587","OBJECT_TYPE":"PAYLOAD","COUNTRY_CODE":"US","CENTER_NAME":"EARTH","MEAN_MOTION_DOT":"-0.00003409","OBJECT_NAME":"STARLINK-2284","APOAPSIS":"548.871","ARG_OF_PERICENTER":"47.0916","REF_FRAME":"TEME","RA_OF_ASC_NODE":"16.0327","BSTAR":"-0.00021008000000","EPOCH":"2023-01-14T07:44:54.828384","ELEMENT_SET_NO":"999","FILE":"3744727","OBJECT_ID":"2021-024AR","LAUNCH_DATE":"2021-03-24","MEAN_ELEMENT_THEORY":"SGP4","NORAD_CAT_ID":"48016","PERIAPSIS":"545.640","REV_AT_EPOCH":"10182","MEAN_MOTION":"15.06386351","DECAY_DATE":null,"PERIOD":"95.593","MEAN_ANOMALY":"313.0269","TLE_LINE2":"2 48016  53.0539  16.0327 0002333  47.0916 313.0269 15.06386351101827","TLE_LINE1":"1 48016U 21024AR  23014.32285681 -.00003409  00000-0 -21008-3 0  9995","CLASSIFICATION_TYPE":"U","MEAN_MOTION_DDOT":"0.0000000000000","ECCENTRICITY":"0.00023330","EPHEMERIS_TYPE":"0","TIME_SYSTEM":"UTC","RCS_SIZE":"LARGE","SEMIMAJOR_AXIS":"6925.390","SITE":"AFETR","INCLINATION":"53.0539"},{"MEAN_MOTION_DDOT":"0.0000000000000","ECCENTRICITY":"0.00018660","EPHEMERIS_TYPE":"0","TIME_SYSTEM":"UTC","TLE_LINE1":"1 48018U 21024AT  23014.90984733 -.00000975  00000-0 -46607-4 0  9993","CLASSIFICATION_TYPE":"U","SITE":"AFETR","INCLINATION":"53.0526","RCS_SIZE":"LARGE","SEMIMAJOR_AXIS":"6925.406","LAUNCH_DATE":"2021-03-24","NORAD_CAT_ID":"48018","MEAN_ELEMENT_THEORY":"SGP4","PERIAPSIS":"545.978","REV_AT_EPOCH":"10094","MEAN_MOTION":"15.06381383","DECAY_DATE":null,"TLE_LINE2":"2 48018  53.0526  83.3896 0001866  56.1367 303.9799 15.06381383100942","MEAN_ANOMALY":"303.9799","PERIOD":"95.593","RA_OF_ASC_NODE":"83.3896","BSTAR":"-0.00004660700000","APOAPSIS":"548.563","ARG_OF_PERICENTER":"56.1367","REF_FRAME":"TEME","FILE":"3745140","OBJECT_ID":"2021-024AT","ELEMENT_SET_NO":"999","EPOCH":"2023-01-14T21:50:10.809312","CENTER_NAME":"EARTH","GP_ID":"223025534","COUNTRY_CODE":"US","OBJECT_TYPE":"PAYLOAD","MEAN_MOTION_DOT":"-0.00000975","OBJECT_NAME":"STARLINK-2282"},{"TLE_LINE2":"2 48019  53.0557  76.6811 0001787  66.9800 293.1378 15.06394977100971","MEAN_ANOMALY":"293.1378","PERIOD":"95.592","REV_AT_EPOCH":"10097","PERIAPSIS":"545.991","NORAD_CAT_ID":"48019","LAUNCH_DATE":"2021-03-24","MEAN_ELEMENT_THEORY":"SGP4","MEAN_MOTION":"15.06394977","DECAY_DATE":null,"SITE":"AFETR","INCLINATION":"53.0557","RCS_SIZE":"LARGE","SEMIMAJOR_AXIS":"6925.364","MEAN_MOTION_DDOT":"0.0000000000000","ECCENTRICITY":"0.00017870","TIME_SYSTEM":"UTC","EPHEMERIS_TYPE":"0","TLE_LINE1":"1 48019U 21024AU  23014.12933405  .00006104  00000-0  42837-3 0  9996","CLASSIFICATION_TYPE":"U","MEAN_MOTION_DOT":"0.00006104","OBJECT_NAME":"STARLINK-2285","CENTER_NAME":"EARTH","GP_ID":"222987735","COUNTRY_CODE":"US","OBJECT_TYPE":"PAYLOAD","OBJECT_ID":"2021-024AU","FILE":"3744206","EPOCH":"2023-01-14T03:06:14.461920","ELEMENT_SET_NO":"999","BSTAR":"0.00042837000000","RA_OF_ASC_NODE":"76.6811","APOAPSIS":"548.467","REF_FRAME":"TEME","ARG_OF_PERICENTER":"66.9800"}];
